{
    "links": {
        "self": "http://www.neowsapp.com/rest/v1/neo/3764720?api_key=iIulBulltgU6a56xZRHN4H3l9WmuAYTsLGpBGhQ2"
    },
    "id": "3764720",
    "neo_reference_id": "3764720",
    "name": "(2016 WP3)",
    "designation": "2016 WP3",
    "nasa_jpl_url": "http://ssd.jpl.nasa.gov/sbdb.cgi?sstr=3764720",
    "absolute_magnitude_h": 25.5,
    "estimated_diameter": {
        "kilometers": {
            "estimated_diameter_min": 0.0211132445,
            "estimated_diameter_max": 0.0472106499
        },
        "meters": {
            "estimated_diameter_min": 21.113244479,
            "estimated_diameter_max": 47.2106498806
        },
        "miles": {
            "estimated_diameter_min": 0.0131191578,
            "estimated_diameter_max": 0.0293353287
        },
        "feet": {
            "estimated_diameter_min": 69.2691770164,
            "estimated_diameter_max": 154.8905885541
        }
    },
    "is_potentially_hazardous_asteroid": false,
    "close_approach_data": [
        {
            "close_approach_date": "1995-09-05",
            "close_approach_date_full": "1995-Sep-05 18:14",
            "epoch_date_close_approach": 810324840000,
            "relative_velocity": {
                "kilometers_per_second": "10.1887166092",
                "kilometers_per_hour": "36679.3797932528",
                "miles_per_hour": "22791.140183202"
            },
            "miss_distance": {
                "astronomical": "0.2470804963",
                "lunar": "96.1143130607",
                "kilometers": "36962715.965022881",
                "miles": "22967566.6804465178"
            },
            "orbiting_body": "Earth"
        },
        {
            "close_approach_date": "2003-12-03",
            "close_approach_date_full": "2003-Dec-03 20:52",
            "epoch_date_close_approach": 1070484720000,
            "relative_velocity": {
                "kilometers_per_second": "13.411109024",
                "kilometers_per_hour": "48279.9924862826",
                "miles_per_hour": "29999.3097757127"
            },
            "miss_distance": {
                "astronomical": "0.3205333939",
                "lunar": "124.6874902271",
                "kilometers": "47951112.991310993",
                "miles": "29795439.9798899834"
            },
            "orbiting_body": "Earth"
        },
        {
            "close_approach_date": "2016-11-13",
            "close_approach_date_full": "2016-Nov-13 10:26",
            "epoch_date_close_approach": 1479032760000,
            "relative_velocity": {
                "kilometers_per_second": "5.1552214849",
                "kilometers_per_hour": "18558.7973456723",
                "miles_per_hour": "11531.7149395929"
            },
            "miss_distance": {
                "astronomical": "0.0607605113",
                "lunar": "23.6358388957",
                "kilometers": "9089643.070590931",
                "miles": "5648042.3008636078"
            },
            "orbiting_body": "Earth"
        },
        {
            "close_approach_date": "2037-12-10",
            "close_approach_date_full": "2037-Dec-10 18:38",
            "epoch_date_close_approach": 2144083080000,
            "relative_velocity": {
                "kilometers_per_second": "17.6924709711",
                "kilometers_per_hour": "63692.8954958513",
                "miles_per_hour": "39576.288315186"
            },
            "miss_distance": {
                "astronomical": "0.4677064686",
                "lunar": "181.9378162854",
                "kilometers": "69967891.487781882",
                "miles": "43476031.7601266916"
            },
            "orbiting_body": "Earth"
        },
        {
            "close_approach_date": "2042-08-27",
            "close_approach_date_full": "2042-Aug-27 12:35",
            "epoch_date_close_approach": 2292755700000,
            "relative_velocity": {
                "kilometers_per_second": "14.3927605377",
                "kilometers_per_hour": "51813.9379358813",
                "miles_per_hour": "32195.1660468813"
            },
            "miss_distance": {
                "astronomical": "0.3797954585",
                "lunar": "147.7404333565",
                "kilometers": "56816591.627273395",
                "miles": "35304192.960007051"
            },
            "orbiting_body": "Earth"
        }
    ],
    "orbital_data": {
        "orbit_id": "7",
        "orbit_determination_date": "2017-04-06 08:22:01",
        "first_observation_date": "2016-11-23",
        "last_observation_date": "2016-12-18",
        "data_arc_in_days": 25,
        "observations_used": 44,
        "orbit_uncertainty": "7",
        "minimum_orbit_intersection": ".058663",
        "jupiter_tisserand_invariant": "4.760",
        "epoch_osculation": "2459000.5",
        "eccentricity": ".263222035308056",
        "semi_major_axis": "1.380075932989461",
        "inclination": "5.427591203699929",
        "ascending_node_longitude": "254.8446475003391",
        "orbital_period": "592.178861036888",
        "perihelion_distance": "1.016809537028311",
        "perihelion_argument": "133.4154007893777",
        "aphelion_distance": "1.743342328950611",
        "perihelion_time": "2458869.822460336971",
        "mean_anomaly": "79.4420695739089",
        "mean_motion": ".6079244358193578",
        "equinox": "J2000",
        "orbit_class": {
            "orbit_class_type": "APO",
            "orbit_class_description": "Near-Earth asteroid orbits which cross the Earth’s orbit similar to that of 1862 Apollo",
            "orbit_class_range": "a (semi-major axis) > 1.0 AU; q (perihelion) < 1.017 AU"
        }
    },
    "is_sentry_object": false
}